[{"OBJECT_NAME":"STARLINK-30520","OBJECT_ID":"2023-153V","EPOCH":"2026-03-09T01:19:10.735104","MEAN_MOTION":15.27581814,"ECCENTRICITY":0.00015472,"INCLINATION":43.0017,"RA_OF_ASC_NODE":70.2477,"ARG_OF_PERICENTER":267.8325,"MEAN_ANOMALY":92.2349,"EPHEMERIS_TYPE":0,"CLASSIFICATION_TYPE":"U","NORAD_CAT_ID":58010,"ELEMENT_SET_NO":999,"REV_AT_EPOCH":13470,"BSTAR":3.2147036e-5,"MEAN_MOTION_DOT":6.23e-6,"MEAN_MOTION_DDOT":0},{"OBJECT_NAME":"KSLV-II R\/B","OBJECT_ID":"2023-072H","EPOCH":"2026-03-09T20:13:26.441760","MEAN_MOTION":15.33109439,"ECCENTRICITY":0.00241884,"INCLINATION":97.4991,"RA_OF_ASC_NODE":274.152,"ARG_OF_PERICENTER":318.2938,"MEAN_ANOMALY":41.646,"EPHEMERIS_TYPE":0,"CLASSIFICATION_TYPE":"U","NORAD_CAT_ID":56750,"ELEMENT_SET_NO":999,"REV_AT_EPOCH":15516,"BSTAR":0.00028309532,"MEAN_MOTION_DOT":9.057e-5,"MEAN_MOTION_DDOT":0}]
